STARLINK-5391           
1 54833U 22177P   25242.88265191  .00000742  00000+0  69994-4 0  9990
2 54833  43.0038  90.0660 0001329 287.7160  72.3537 15.02539730148252
STARLINK-5386           
1 54834U 22177Q   25242.94136923  .00000136  00000+0  25123-4 0  9991
2 54834  43.0033  89.6485 0001272 269.2520  90.8177 15.02532954148277
STARLINK-5389           
1 54835U 22177R   25242.87932434  .00000268  00000+0  34875-4 0  9995
2 54835  43.0038  90.0428 0001214 270.2621  89.8082 15.02538089148252
STARLINK-5384           
1 54836U 22177S   25242.87156061 -.00000063  00000+0  10406-4 0  9998
2 54836  43.0029  89.9797 0001088 266.4459  93.6259 15.02532953148268
STARLINK-5369           
1 54837U 22177T   25242.93914492  .00001264  00000+0  10863-3 0  9995
2 54837  43.0037  89.6290 0001276 274.9313  85.1383 15.02534357148269
STARLINK-5372           
1 54838U 22177U   25242.86490475 -.00000350  00000+0 -10817-4 0  9995
2 54838  43.0027  89.9326 0001027 275.0716  85.0009 15.02532774148259
STARLINK-5368           
1 54840U 22177W   25242.92249889 -.00000033  00000+0  12609-4 0  9994
2 54840  43.0037  89.5051 0001329 276.1895  83.8796 15.02535910148264
STARLINK-4659           
1 54841U 22177X   25242.93471002  .00000083  00000+0  21241-4 0  9996
2 54841  43.0044  89.5996 0001214 267.4838  92.5866 15.02531823148268
STARLINK-5387           
1 54842U 22177Y   25242.91583987  .00000262  00000+0  34480-4 0  9999
2 54842  43.0034  89.4564 0001224 272.1436  87.9266 15.02531699148269
STARLINK-5304           
1 54843U 22177Z   25242.92804716  .00002302  00000+0  18537-3 0  9998
2 54843  43.0044  89.5476 0001335 282.8109  77.2584 15.02548928148260
STARLINK-5388           
1 54844U 22177AA  25242.84490085  .00002558  00000+0  20429-3 0  9996
2 54844  42.9985  89.7628 0001410  87.6616 272.4387 15.02548355148255
STARLINK-5082           
1 54845U 22177AB  25242.91919726 -.00001545  00000+0 -99386-4 0  9999
2 54845  43.0033  89.4809 0000870 288.2394  71.8353 15.02511763148269
STARLINK-5360           
1 54846U 22177AC  25242.84603052 -.00000305  00000+0 -75074-5 0  9996
2 54846  43.0033  89.7929 0001388 261.1920  98.8766 15.02535251148250
STARLINK-5061           
1 54847U 22177AD  25242.80670175  .00001523  00000+0  12782-3 0  9999
2 54847  43.0066  64.3393 0001389 268.2071  91.8612 15.02535984148545
STARLINK-5432           
1 54848U 22177AE  25242.91288509 -.00000154  00000+0  36771-5 0  9994
2 54848  43.0044  77.2822 0001345 269.7569  90.3120 15.02531976148402
STARLINK-5434           
1 54849U 22177AF  25242.91668981  .00547709  00000+0  38314-2 0  9994
2 54849  43.0003  61.0749 0002049 274.6602 117.2267 15.71848702  5948
