[{"OBJECT_NAME":"STARLINK-5391","OBJECT_ID":"2022-177P","EPOCH":"2025-08-30T21:11:01.125024","MEAN_MOTION":15.0253973,"ECCENTRICITY":0.00013296,"INCLINATION":43.0038,"RA_OF_ASC_NODE":90.066,"ARG_OF_PERICENTER":287.716,"MEAN_ANOMALY":72.3537,"EPHEMERIS_TYPE":0,"CLASSIFICATION_TYPE":"U","NORAD_CAT_ID":54833,"ELEMENT_SET_NO":999,"REV_AT_EPOCH":14825,"BSTAR":6.9994434e-5,"MEAN_MOTION_DOT":7.42e-6,"MEAN_MOTION_DDOT":0},{"OBJECT_NAME":"STARLINK-5386","OBJECT_ID":"2022-177Q","EPOCH":"2025-08-30T22:35:34.301472","MEAN_MOTION":15.02532954,"ECCENTRICITY":0.00012722,"INCLINATION":43.0033,"RA_OF_ASC_NODE":89.6485,"ARG_OF_PERICENTER":269.252,"MEAN_ANOMALY":90.8177,"EPHEMERIS_TYPE":0,"CLASSIFICATION_TYPE":"U","NORAD_CAT_ID":54834,"ELEMENT_SET_NO":999,"REV_AT_EPOCH":14827,"BSTAR":2.5123423e-5,"MEAN_MOTION_DOT":1.36e-6,"MEAN_MOTION_DDOT":0},{"OBJECT_NAME":"STARLINK-5389","OBJECT_ID":"2022-177R","EPOCH":"2025-08-30T21:06:13.622976","MEAN_MOTION":15.02538089,"ECCENTRICITY":0.00012149,"INCLINATION":43.0038,"RA_OF_ASC_NODE":90.0428,"ARG_OF_PERICENTER":270.2621,"MEAN_ANOMALY":89.8082,"EPHEMERIS_TYPE":0,"CLASSIFICATION_TYPE":"U","NORAD_CAT_ID":54835,"ELEMENT_SET_NO":999,"REV_AT_EPOCH":14825,"BSTAR":3.4875234e-5,"MEAN_MOTION_DOT":2.68e-6,"MEAN_MOTION_DDOT":0},{"OBJECT_NAME":"STARLINK-5384","OBJECT_ID":"2022-177S","EPOCH":"2025-08-30T20:55:02.836704","MEAN_MOTION":15.02532953,"ECCENTRICITY":0.00010882,"INCLINATION":43.0029,"RA_OF_ASC_NODE":89.9797,"ARG_OF_PERICENTER":266.4459,"MEAN_ANOMALY":93.6259,"EPHEMERIS_TYPE":0,"CLASSIFICATION_TYPE":"U","NORAD_CAT_ID":54836,"ELEMENT_SET_NO":999,"REV_AT_EPOCH":14826,"BSTAR":1.0405907e-5,"MEAN_MOTION_DOT":-6.3e-7,"MEAN_MOTION_DDOT":0},{"OBJECT_NAME":"STARLINK-5369","OBJECT_ID":"2022-177T","EPOCH":"2025-08-30T22:32:22.121088","MEAN_MOTION":15.02534357,"ECCENTRICITY":0.00012765,"INCLINATION":43.0037,"RA_OF_ASC_NODE":89.629,"ARG_OF_PERICENTER":274.9313,"MEAN_ANOMALY":85.1383,"EPHEMERIS_TYPE":0,"CLASSIFICATION_TYPE":"U","NORAD_CAT_ID":54837,"ELEMENT_SET_NO":999,"REV_AT_EPOCH":14826,"BSTAR":0.00010862729,"MEAN_MOTION_DOT":1.264e-5,"MEAN_MOTION_DDOT":0},{"OBJECT_NAME":"STARLINK-5372","OBJECT_ID":"2022-177U","EPOCH":"2025-08-30T20:45:27.770400","MEAN_MOTION":15.02532774,"ECCENTRICITY":0.00010273,"INCLINATION":43.0027,"RA_OF_ASC_NODE":89.9326,"ARG_OF_PERICENTER":275.0716,"MEAN_ANOMALY":85.0009,"EPHEMERIS_TYPE":0,"CLASSIFICATION_TYPE":"U","NORAD_CAT_ID":54838,"ELEMENT_SET_NO":999,"REV_AT_EPOCH":14825,"BSTAR":-1.0816532e-5,"MEAN_MOTION_DOT":-3.5e-6,"MEAN_MOTION_DDOT":0},{"OBJECT_NAME":"STARLINK-5368","OBJECT_ID":"2022-177W","EPOCH":"2025-08-30T22:08:23.904096","MEAN_MOTION":15.0253591,"ECCENTRICITY":0.00013292,"INCLINATION":43.0037,"RA_OF_ASC_NODE":89.5051,"ARG_OF_PERICENTER":276.1895,"MEAN_ANOMALY":83.8796,"EPHEMERIS_TYPE":0,"CLASSIFICATION_TYPE":"U","NORAD_CAT_ID":54840,"ELEMENT_SET_NO":999,"REV_AT_EPOCH":14826,"BSTAR":1.2608716e-5,"MEAN_MOTION_DOT":-3.3e-7,"MEAN_MOTION_DDOT":0},{"OBJECT_NAME":"STARLINK-4659","OBJECT_ID":"2022-177X","EPOCH":"2025-08-30T22:25:58.945728","MEAN_MOTION":15.02531823,"ECCENTRICITY":0.00012148,"INCLINATION":43.0044,"RA_OF_ASC_NODE":89.5996,"ARG_OF_PERICENTER":267.4838,"MEAN_ANOMALY":92.5866,"EPHEMERIS_TYPE":0,"CLASSIFICATION_TYPE":"U","NORAD_CAT_ID":54841,"ELEMENT_SET_NO":999,"REV_AT_EPOCH":14826,"BSTAR":2.1241429e-5,"MEAN_MOTION_DOT":8.3e-7,"MEAN_MOTION_DDOT":0},{"OBJECT_NAME":"STARLINK-5387","OBJECT_ID":"2022-177Y","EPOCH":"2025-08-30T21:58:48.564768","MEAN_MOTION":15.02531699,"ECCENTRICITY":0.0001224,"INCLINATION":43.0034,"RA_OF_ASC_NODE":89.4564,"ARG_OF_PERICENTER":272.1436,"MEAN_ANOMALY":87.9266,"EPHEMERIS_TYPE":0,"CLASSIFICATION_TYPE":"U","NORAD_CAT_ID":54842,"ELEMENT_SET_NO":999,"REV_AT_EPOCH":14826,"BSTAR":3.4480165e-5,"MEAN_MOTION_DOT":2.62e-6,"MEAN_MOTION_DDOT":0},{"OBJECT_NAME":"STARLINK-5304","OBJECT_ID":"2022-177Z","EPOCH":"2025-08-30T22:16:23.274624","MEAN_MOTION":15.02548928,"ECCENTRICITY":0.00013353,"INCLINATION":43.0044,"RA_OF_ASC_NODE":89.5476,"ARG_OF_PERICENTER":282.8109,"MEAN_ANOMALY":77.2584,"EPHEMERIS_TYPE":0,"CLASSIFICATION_TYPE":"U","NORAD_CAT_ID":54843,"ELEMENT_SET_NO":999,"REV_AT_EPOCH":14826,"BSTAR":0.00018537284,"MEAN_MOTION_DOT":2.302e-5,"MEAN_MOTION_DDOT":0},{"OBJECT_NAME":"STARLINK-5388","OBJECT_ID":"2022-177AA","EPOCH":"2025-08-30T20:16:39.433440","MEAN_MOTION":15.02548355,"ECCENTRICITY":0.00014103,"INCLINATION":42.9985,"RA_OF_ASC_NODE":89.7628,"ARG_OF_PERICENTER":87.6616,"MEAN_ANOMALY":272.4387,"EPHEMERIS_TYPE":0,"CLASSIFICATION_TYPE":"U","NORAD_CAT_ID":54844,"ELEMENT_SET_NO":999,"REV_AT_EPOCH":14825,"BSTAR":0.00020428548,"MEAN_MOTION_DOT":2.558e-5,"MEAN_MOTION_DDOT":0},{"OBJECT_NAME":"STARLINK-5082","OBJECT_ID":"2022-177AB","EPOCH":"2025-08-30T22:03:38.643264","MEAN_MOTION":15.02511763,"ECCENTRICITY":8.701e-5,"INCLINATION":43.0033,"RA_OF_ASC_NODE":89.4809,"ARG_OF_PERICENTER":288.2394,"MEAN_ANOMALY":71.8353,"EPHEMERIS_TYPE":0,"CLASSIFICATION_TYPE":"U","NORAD_CAT_ID":54845,"ELEMENT_SET_NO":999,"REV_AT_EPOCH":14826,"BSTAR":-9.938561e-5,"MEAN_MOTION_DOT":-1.545e-5,"MEAN_MOTION_DDOT":0},{"OBJECT_NAME":"STARLINK-5360","OBJECT_ID":"2022-177AC","EPOCH":"2025-08-30T20:18:17.036928","MEAN_MOTION":15.02535251,"ECCENTRICITY":0.0001388,"INCLINATION":43.0033,"RA_OF_ASC_NODE":89.7929,"ARG_OF_PERICENTER":261.192,"MEAN_ANOMALY":98.8766,"EPHEMERIS_TYPE":0,"CLASSIFICATION_TYPE":"U","NORAD_CAT_ID":54846,"ELEMENT_SET_NO":999,"REV_AT_EPOCH":14825,"BSTAR":-7.50742e-6,"MEAN_MOTION_DOT":-3.05e-6,"MEAN_MOTION_DDOT":0},{"OBJECT_NAME":"STARLINK-5061","OBJECT_ID":"2022-177AD","EPOCH":"2025-08-30T19:21:39.031200","MEAN_MOTION":15.02535984,"ECCENTRICITY":0.00013899,"INCLINATION":43.0066,"RA_OF_ASC_NODE":64.3393,"ARG_OF_PERICENTER":268.2071,"MEAN_ANOMALY":91.8612,"EPHEMERIS_TYPE":0,"CLASSIFICATION_TYPE":"U","NORAD_CAT_ID":54847,"ELEMENT_SET_NO":999,"REV_AT_EPOCH":14854,"BSTAR":0.00012781519,"MEAN_MOTION_DOT":1.523e-5,"MEAN_MOTION_DDOT":0},{"OBJECT_NAME":"STARLINK-5432","OBJECT_ID":"2022-177AE","EPOCH":"2025-08-30T21:54:33.271776","MEAN_MOTION":15.02531976,"ECCENTRICITY":0.00013458,"INCLINATION":43.0044,"RA_OF_ASC_NODE":77.2822,"ARG_OF_PERICENTER":269.7569,"MEAN_ANOMALY":90.312,"EPHEMERIS_TYPE":0,"CLASSIFICATION_TYPE":"U","NORAD_CAT_ID":54848,"ELEMENT_SET_NO":999,"REV_AT_EPOCH":14840,"BSTAR":3.677051e-6,"MEAN_MOTION_DOT":-1.54e-6,"MEAN_MOTION_DDOT":0},{"OBJECT_NAME":"STARLINK-5434","OBJECT_ID":"2022-177AF","EPOCH":"2025-08-30T22:00:01.999584","MEAN_MOTION":15.71848702,"ECCENTRICITY":0.00020494,"INCLINATION":43.0003,"RA_OF_ASC_NODE":61.0749,"ARG_OF_PERICENTER":274.6602,"MEAN_ANOMALY":117.2267,"EPHEMERIS_TYPE":0,"CLASSIFICATION_TYPE":"U","NORAD_CAT_ID":54849,"ELEMENT_SET_NO":999,"REV_AT_EPOCH":594,"BSTAR":0.0038313629,"MEAN_MOTION_DOT":0.00547709,"MEAN_MOTION_DDOT":0}]
